NORAD_CAT_ID,OBJECT_NAME,OBJECT_TYPE,EPOCH,MEAN_MOTION,ECCENTRICITY,INCLINATION,RA_OF_ASC_NODE,ARG_OF_PERICENTER,MEAN_ANOMALY,BSTAR,MEAN_MOTION_DOT,MEAN_MOTION_DDOT,TLE_LINE0,TLE_LINE1,TLE_LINE2,SEMIMAJOR_AXIS,PERIOD,APOGEE,PERIGEE,DECAYED
53868.0,STARLINK-4789,PAYLOAD,2022-11-28 22:00:01,15.73234867,0.0003565,53.2145,268.0023,7.3194,210.0244,0.00015326,0.00020978,0.0,0 STARLINK-4789,1 53868U 22114BC  22332.91668981  .00020978  00000-0  15326-3 0  9996,2 53868  53.2145 268.0023 0003565   7.3194 210.0244 15.73234867  1309,6727.795999999999,91.531,352.059,347.26199999999994,0.0
53868.0,STARLINK-4789,PAYLOAD,2022-11-29 14:00:01,15.73193428,0.0003523,53.2145,264.7028,3.468,31.8245,-0.00045694,-0.00064271,0.0,0 STARLINK-4789,1 53868U 22114BC  22333.58335648 -.00064271  00000-0 -45694-3 0  9998,2 53868  53.2145 264.7028 0003523   3.4680  31.8245 15.73193428 11834,6727.9140000000025,91.534,352.149,347.409,0.0
53868.0,STARLINK-4789,PAYLOAD,2022-11-29 22:00:00,15.73165158,0.0003533,53.2152,263.0536,6.9904,117.131,0.00028509,0.00039528,0.0,0 STARLINK-4789,1 53868U 22114BC  22333.91667824  .00039528  00000-0  28509-3 0  9990,2 53868  53.2152 263.0536 0003533   6.9904 117.1310 15.73165158 11892,6727.995,91.535,352.237,347.483,0.0
53868.0,STARLINK-4789,PAYLOAD,2022-11-30 14:00:01,15.73171631,0.0003546,53.216,259.7543,5.1725,296.8725,0.00037082,0.00051691,0.0,0 STARLINK-4789,1 53868U 22114BC  22334.58335648  .00051691  00000-0  37082-3 0  9991,2 53868  53.2160 259.7543 0003546   5.1725 296.8725 15.73171631  1300,6727.976,91.535,352.227,347.455,0.0
53868.0,STARLINK-4789,PAYLOAD,2022-11-30 22:00:00,15.73333079,0.0003555,53.2168,258.1069,2.7226,28.1456,-0.001998,-0.00273808,0.0,0 STARLINK-4789,1 53868U 22114BC  22334.91667824 -.00273808  00000-0 -19980-2 0  9996,2 53868  53.2168 258.1069 0003555   2.7226  28.1456 15.73333079 12049,6727.516,91.525,351.772,346.98900000000015,0.0
53868.0,STARLINK-4789,PAYLOAD,2022-12-01 06:00:00,15.73049089,0.000373,53.2169,256.461,1.8033,118.0555,0.0016972,0.00243057,0.0,0 STARLINK-4789,1 53868U 22114BC  22335.25001157  .00243057  00000-0  16972-2 0  9994,2 53868  53.2169 256.4610 0003730   1.8033 118.0555 15.73049089 12105,6728.325,91.542,352.7,347.681,0.0
53868.0,STARLINK-4789,PAYLOAD,2022-12-01 14:00:01,15.73156394,0.0003517,53.215,254.8053,5.8766,202.9091,0.00050597,0.00070874,0.0,0 STARLINK-4789,1 53868U 22114BC  22335.58334491  .00070874  00000-0  50597-3 0  9997,2 53868  53.2150 254.8053 0003517   5.8766 202.9091 15.73156394  1304,6728.019,91.536,352.251,347.51800000000014,0.0
53868.0,STARLINK-4789,PAYLOAD,2022-12-01 22:00:00,15.73234626,0.00035,53.2153,253.1565,7.2425,290.4372,6.5757e-05,8.63e-05,0.0,0 STARLINK-4789,1 53868U 22114BC  22335.91667824  .00008630  00000-0  65757-4 0  9999,2 53868  53.2153 253.1565 0003500   7.2425 290.4372 15.73234626  1306,6727.795999999999,91.531,352.016,347.307,0.0
53868.0,STARLINK-4789,PAYLOAD,2022-12-02 00:00:00,15.73256618,0.0003602,53.2152,252.7448,6.9685,42.9481,-0.00028452,-0.00040475,0.0,0 STARLINK-4789,1 53868U 22114BC  22336.00001157 -.00040475  00000-0 -28452-3 0  9996,2 53868  53.2152 252.7448 0003602   6.9685  42.9481 15.73256618 12215,6727.734,91.53,352.022,347.175,0.0
53868.0,STARLINK-4789,PAYLOAD,2022-12-02 14:00:01,15.73161558,0.0003507,53.2155,249.8567,8.4327,107.1707,0.00061,0.00085745,0.0,0 STARLINK-4789,1 53868U 22114BC  22336.58334491  .00085745  00000-0  61000-3 0  9992,2 53868  53.2155 249.8567 0003507   8.4327 107.1707 15.73161558  1302,6728.005,91.535,352.22900000000016,347.51,0.0
53868.0,STARLINK-4789,PAYLOAD,2022-12-02 22:00:00,15.73222722,0.0003583,53.2155,248.208,8.7666,195.754,-0.00026769,-0.00038074,0.0,0 STARLINK-4789,1 53868U 22114BC  22336.91667824 -.00038074  00000-0 -26769-3 0  9996,2 53868  53.2155 248.2080 0003583   8.7666 195.7540 15.73222722  1307,6727.83,91.532,352.106,347.285,0.0
53868.0,STARLINK-4789,PAYLOAD,2022-12-03 08:00:01,15.7321408,0.0003664,53.2147,246.1466,5.0016,40.6835,-0.00045406,-0.00063931,0.0,0 STARLINK-4789,1 53868U 22114BC  22337.33334491 -.00063931  00000-0 -45406-3 0  9993,2 53868  53.2147 246.1466 0003664   5.0016  40.6835 15.73214080 12420,6727.855,91.532,352.185,347.255,0.0
53868.0,STARLINK-4789,PAYLOAD,2022-12-03 14:00:01,15.73144163,0.0003373,53.2149,244.9079,3.8562,18.5383,0.00075752,0.00106818,0.0,0 STARLINK-4789,1 53868U 22114BC  22337.58334491  .00106818  00000-0  75752-3 0  9997,2 53868  53.2149 244.9079 0003373   3.8562  18.5383 15.73144163  1308,6728.054,91.536,352.189,347.65,0.0
53868.0,STARLINK-4789,PAYLOAD,2022-12-03 22:00:00,15.73252039,0.0003466,53.2152,243.2596,4.6422,106.6368,-0.00055567,-0.00078091,0.0,0 STARLINK-4789,1 53868U 22114BC  22337.91667824 -.00078091  00000-0 -55567-3 0  9998,2 53868  53.2152 243.2596 0003466   4.6422 106.6368 15.73252039  1309,6727.746999999999,91.53,351.944,347.28,0.0
53868.0,STARLINK-4789,PAYLOAD,2022-12-04 00:00:00,15.73246432,0.000354,53.2152,242.8478,4.7338,218.7881,-0.00065383,-0.00091611,0.0,0 STARLINK-4789,1 53868U 22114BC  22338.00001157 -.00091611  00000-0 -65383-3 0  9990,2 53868  53.2152 242.8478 0003540   4.7338 218.7881 15.73246432 12535,6727.763000000001,91.53,352.009,347.246,0.0
53868.0,STARLINK-4789,PAYLOAD,2022-12-04 14:00:01,15.73138915,0.0003454,53.2154,239.9595,6.8836,282.2583,0.00071054,0.00100053,0.0,0 STARLINK-4789,1 53868U 22114BC  22338.58334491  .00100053  00000-0  71054-3 0  9994,2 53868  53.2154 239.9595 0003454   6.8836 282.2583 15.73138915 12625,6728.069,91.537,352.2580000000001,347.61,0.0
53868.0,STARLINK-4789,PAYLOAD,2022-12-04 22:00:00,15.73260135,0.0003538,53.2153,238.3113,7.5715,10.4699,-0.00027834,-0.00039619,0.0,0 STARLINK-4789,1 53868U 22114BC  22338.91667824 -.00039619  00000-0 -27834-3 0  9998,2 53868  53.2153 238.3113 0003538   7.5715  10.4699 15.73260135  1302,6727.724,91.53,351.969,347.208,0.0
53868.0,STARLINK-4789,PAYLOAD,2022-12-05 06:00:00,15.73228863,0.0003678,53.2147,236.6624,7.0565,99.9726,2.3541e-05,2.686e-05,0.0,0 STARLINK-4789,1 53868U 22114BC  22339.25001157  .00002686  00000-0  23541-4 0  9991,2 53868  53.2147 236.6624 0003678   7.0565  99.9726 15.73228863 12730,6727.813,91.532,352.152,347.20300000000015,0.0
53868.0,STARLINK-4789,PAYLOAD,2022-12-05 14:00:01,15.73170783,0.0003367,53.2147,235.0109,8.887,187.1866,0.00071923,0.00101438,0.0,0 STARLINK-4789,1 53868U 22114BC  22339.58335648  .00101438  00000-0  71923-3 0  9993,2 53868  53.2147 235.0109 0003367   8.8870 187.1866 15.73170783  1307,6727.978,91.535,352.1090000000001,347.57800000000015,0.0
53868.0,STARLINK-4789,PAYLOAD,2022-12-05 16:00:00,15.73179675,0.0003335,53.2149,234.5984,10.4868,297.7505,0.00081188,0.00114812,0.0,0 STARLINK-4789,1 53868U 22114BC  22339.66667824  .00114812  00000-0  81188-3 0  9990,2 53868  53.2149 234.5984 0003335  10.4868 297.7505 15.73179675  1302,6727.953,91.534,352.06199999999984,347.574,0.0
53868.0,STARLINK-4789,PAYLOAD,2022-12-06 01:22:04,15.73237298,0.000354,53.2154,232.6671,10.7234,349.3861,7.5861e-05,0.00010056,0.0,0 STARLINK-4789,1 53868U 22114BC  22340.05699418  .00010056  00000-0  75861-4 0  9996,2 53868  53.2154 232.6671 0003540  10.7234 349.3861 15.73237298 13407,6727.7890000000025,91.531,352.035,347.272,0.0
53868.0,STARLINK-4789,PAYLOAD,2022-12-06 16:36:52,15.73212119,0.000319,53.2153,229.5236,9.5853,350.5227,1.7357e-08,-6.21e-06,0.0,0 STARLINK-4789,1 53868U 22114BC  22340.69227745 -.00000621  00000-0  17357-7 0  9993,2 53868  53.2153 229.5236 0003190   9.5853 350.5227 15.73212119 13508,6727.861,91.532,351.872,347.579,0.0
53868.0,STARLINK-4789,PAYLOAD,2022-12-06 21:11:20,15.73175698,0.0003526,53.2153,228.5806,7.564,352.5433,-9.2318e-05,-0.0001355,0.0,0 STARLINK-4789,1 53868U 22114BC  22340.88287314 -.00013550  00000-0 -92318-4 0  9995,2 53868  53.2153 228.5806 0003526   7.5640 352.5433 15.73175698 12987,6727.964,91.535,352.202,347.457,0.0
53868.0,STARLINK-4789,PAYLOAD,2022-12-07 01:45:45,15.73206251,0.0003178,53.2151,227.638,357.8418,2.2588,-6.9129e-06,-1.594e-05,0.0,0 STARLINK-4789,1 53868U 22114BC  22341.07344770 -.00001594  00000-0 -69129-5 0  9997,2 53868  53.2151 227.6380 0003178 357.8418   2.2588 15.73206251 13014,6727.877,91.533,351.88,347.60400000000016,0.0
53868.0,STARLINK-4789,PAYLOAD,2022-12-07 09:23:09,15.73222751,0.0003285,53.2151,226.066,5.6946,354.4111,5.4116e-05,6.987e-05,0.0,0 STARLINK-4789,1 53868U 22114BC  22341.39108299  .00006987  00000-0  54116-4 0  9994,2 53868  53.2151 226.0660 0003285   5.6946 354.4111 15.73222751 13063,6727.83,91.532,351.905,347.485,0.0
53868.0,STARLINK-4789,PAYLOAD,2022-12-07 15:29:04,15.73220588,0.0003294,53.215,224.8089,5.367999999999999,354.7375,4.229e-05,5.322e-05,0.0,0 STARLINK-4789,1 53868U 22114BC  22341.64519466  .00005322  00000-0  42290-4 0  9996,2 53868  53.2150 224.8089 0003294   5.3680 354.7375 15.73220588 13651,6727.8359999999975,91.532,351.918,347.485,0.0
53868.0,STARLINK-4789,PAYLOAD,2022-12-07 23:06:27,15.73253348,0.0003502,53.215,223.2377,5.169,354.9366,0.00013143,0.00017908,0.0,0 STARLINK-4789,1 53868U 22114BC  22341.96282263  .00017908  00000-0  13143-3 0  9990,2 53868  53.2150 223.2377 0003502   5.1690 354.9366 15.73253348 13152,6727.743,91.53,351.964,347.25199999999984,0.0
53868.0,STARLINK-4789,PAYLOAD,2022-12-08 15:52:44,15.73241371,0.0003456,53.2148,219.7793,3.059,357.0451,8.871600000000001e-05,0.0001187,0.0,0 STARLINK-4789,1 53868U 22114BC  22342.66162223  .00011870  00000-0  88716-4 0  9992,2 53868  53.2148 219.7793 0003456   3.0590 357.0451 15.73241371 13269,6727.776999999999,91.531,351.967,347.31699999999995,0.0
53868.0,STARLINK-4789,PAYLOAD,2022-12-09 01:01:34,15.73276529,0.0001885,53.2144,217.8932,11.73,348.3764,8.641200000000001e-05,0.00011563,0.0,0 STARLINK-4789,1 53868U 22114BC  22343.04276318  .00011563  00000-0  86412-4 0  9996,2 53868  53.2144 217.8932 0001885  11.7300 348.3764 15.73276529 13328,6727.677,91.529,350.81,348.274,0.0
